STARLINK-2022           
1 47643U 21012Z   23295.87333356  .00027695  00000+0  18708-2 0  9993
2 47643  53.0562 351.8894 0001686 108.3753 251.7419 15.06401427148791
